FLOCK 4BE-17            
1 60492U 24149AA  26199.14540861  .00008739  00000+0  21659-3 0  9999
2 60492  97.3761 282.7765 0004566 139.3551 220.8037 15.40625414107025
FLOCK 4BE-22            
1 60494U 24149AC  26199.16375267  .00009405  00000+0  22226-3 0  9991
2 60494  97.3726 283.0367 0004873 145.7284 214.4279 15.42043725107078
FLOCK 4BE-34            
1 60495U 24149AD  26199.18138506  .00009020  00000+0  21352-3 0  9999
2 60495  97.3777 283.8962 0005075 153.1118 207.0393 15.42006823107105
FLOCK 4BE-32            
1 60497U 24149AF  26199.19324338  .00010409  00000+0  23686-3 0  9997
2 60497  97.3712 283.4767 0005159 150.1202 210.0342 15.43150411107112
FLOCK 4BE-11            
1 60501U 24149AK  26199.17173051  .00010418  00000+0  23085-3 0  9998
2 60501  97.3690 283.7144 0005223 150.3075 209.8471 15.43941005107135
FLOCK 4BE-24            
1 60505U 24149AP  26199.21978323  .00011616  00000+0  25513-3 0  9991
2 60505  97.3705 284.0329 0005240 160.7672 199.3775 15.44175149107153
FLOCK 4BE-29            
1 60509U 24149AT  26199.14321410  .00025729  00000+0  53484-3 0  9994
2 60509  97.3803 285.5095 0003730 168.9385 191.1947 15.45631927107192
FLOCK 4BE-2             
1 60511U 24149AV  26197.80093516  .00043143  00000+0  61823-3 0  9997
2 60511  97.3829 286.0140 0005363 168.9366 191.2008 15.56038813107100
FLOCK 4BE-13            
1 60512U 24149AW  26199.16886059  .00007989  00000+0  18525-3 0  9990
2 60512  97.3712 283.9184 0005287 147.3105 212.8471 15.42665952107146
FLOCK 4BE-27            
1 60513U 24149AX  26199.16493253  .00004939  00000+0  14807-3 0  9992
2 60513  97.3817 281.0406 0004321 172.0596 188.0716 15.34948340106899
FLOCK 4BE-9             
1 60514U 24149AY  26199.18902998  .00012582  00000+0  30020-3 0  9994
2 60514  97.3784 283.7797 0003941 162.4982 197.6402 15.41680268107095
FLOCK 4BE-6             
1 60516U 24149BA  26199.17807867  .00008022  00000+0  20070-3 0  9992
2 60516  97.3782 283.0666 0004594 164.3162 195.8227 15.40367618107049
FLOCK 4BE-14            
1 60517U 24149BB  26199.13202246  .00009602  00000+0  22782-3 0  9996
2 60517  97.3687 283.1867 0005606 167.3280 192.8109 15.41913504107090
FLOCK 4BE-1             
1 60518U 24149BC  26199.18006033  .00010017  00000+0  22478-3 0  9992
2 60518  97.3771 284.6255 0005289 166.5273 193.6117 15.43576103107159
FLOCK 4BE-28            
1 60519U 24149BD  26199.14499509  .00026086  00000+0  52715-3 0  9993
2 60519  97.3739 285.4169 0005419 167.0879 193.0510 15.46448306107225
FLOCK 4BE-5             
1 60559U 24149CV  26199.13697720  .00009023  00000+0  22011-3 0  9999
2 60559  97.3835 283.4524 0004275 163.1816 196.9573 15.41098734107048
